from metar import Metar
report = 'KELP 280051Z 28016KT 10SM BKN250 25/M04 A2996 RMK AO2 SLP090 T02501044'
report = 'KELP 281751Z 11007KT 10SM FEW120 BKN250 21/M01 A3011 RMK AO2 SLP134 T02111011 10217 20111 58002'
report = 'KELP 271751Z 28013G19KT 10SM FEW085 FEW250 24/03 A3005 RMK AO2 WSHFT 1735 SLP118 T02440028 10244 20117 58005'
report = 'KINK 141953Z AUTO 23017KT 10SM CLR 21/M03 A2968 RMK AO2 SLP026 T02111028'
X=Metar.Metar(report)
print X.string()
T = float( X.temp.value("F") )
DP = float( X.dewpt.value("F") )
PR = X.precip_1hr
print T, DP, PR